C/2020 K8 (Catalina-ATLAS),h,09/14.5161/2020,31.4136,181.5193,260.0550,1.000318,0.474611,2000,15.0,3.2
# From MPEC 2020-UR0
P/2020 K9 (Lemmon-PANSTARRS),e,23.2071,166.2392,196.8611,4.201754,0.1144348,0.32183182,348.8142,11/06.0/2020,2000,g 12.5,4.0
# From MPEC 2020-K19
P/2020 M1 (PANSTARRS),e,8.6356,142.9314,67.9593,5.096340,0.0856676,0.47776600,27.4572,11/06.0/2020,2000,g 14.5,4.0
# From MPEC 2020-N01
P/2020 M2 (Lemmon),e,10.9284,8.2097,14.4024,3.826154,0.1316923,0.40490597,18.3990,11/06.0/2020,2000,g 12.0,4.0
# From MPEC 2020-UR0
C/2020 M3 (ATLAS),e,23.4734,71.2502,328.4457,26.81961,0.0070962,0.95271201,0.0807,11/06.0/2020,2000,g 14.5,4.0
# From MPEC 2020-K19
A/2020 M4,e,160.1255,348.6316,104.6347,5580,0.0000024,0.99893335,0.0000,11/23.7291/2020,2000,g 14.5,2.0
# From MPEC 2020-UR0
C/2020 M5 (ATLAS),e,93.2224,352.0979,126.3366,8481,0.0000013,0.99964573,0.0000,08/19.8878/2021,2000,g  9.0,4.0
# From MPEC 2020-UR0
C/2020 N1 (PANSTARRS),h,03/12.2399/2021,29.7038,279.9843,186.7707,1.000399,1.320760,2000,12.5,4.0
# From MPEC 2020-UR0
C/2020 N2 (ATLAS),e,161.0337,257.0717,331.2016,108.3635,0.0008737,0.98344507,0.0000,08/23.6707/2020,2000,g 16.0,3.2
# From MPEC 2020-SI8
P/2020 O1 (Lemmon-PANSTARRS),e,5.2247,175.9779,104.7187,2.645657,0.2290360,0.11968271,42.7478,11/06.0/2020,2000,g 15.5,4.0
# From MPEC 2020-UR0
C/2020 O2 (Amaral),h,08/28.1708/2021,71.7526,256.7524,10.2306,1.001375,4.864191,2000,8.0,3.2
# From MPEC 2020-SI8
P/2020 O3 (PANSTARRS),e,8.4415,266.8799,81.3816,4.659193,0.0980027,0.10569946,351.7573,11/06.0/2020,2000,g 12.0,4.0
# From MPEC 2020-UR0
C/2020 P1 (NEOWISE),h,10/20.1796/2020,45.0518,53.5374,8.8972,1.000252,0.342199,2000,14.0,3.2
# From MPEC 2020-UR0
C/2020 P3 (ATLAS),e,61.8881,19.5000,82.2469,6197,0.0000020,0.99890061,0.0000,04/20.9383/2021,2000,g  6.0,4.0
# From MPEC 2020-QN1
C/2020 P4-A (SOHO),h,08/08.2179/2020,26.3316,175.2061,177.4771,1.002092,0.090758,2000,5.3,6.0
# From MPEC 2020-QN1
C/2020 P4-B (SOHO),h,08/08.1271/2020,27.3017,171.4988,173.4044,1.000486,0.098304,2000,0.0,6.0
# From MPEC 2020-QN1
C/2020 P4-C (SOHO),h,08/06.8015/2020,37.4581,164.0406,116.7346,1.012861,0.086550,2000,-1.6,6.0
# From MPEC 2020-SI8
C/2020 Q1 (Borisov),e,142.9240,52.3603,9.8046,52.67381,0.0025782,0.97504503,0.0000,08/14.5706/2020,2000,g 14.0,4.0
# From MPEC 2020-UR0
C/2020 R2 (PANSTARRS),e,53.2199,195.0941,211.6773,392.6493,0.0001267,0.98804694,0.0000,02/24.1807/2022,2000,g  9.0,4.0
# From MPEC 2020-UR0
C/2020 R4 (ATLAS),e,164.4630,323.2728,46.7136,97.11818,0.0010298,0.98940883,0.0000,03/01.9401/2021,2000,g 13.5,4.0
# From MPEC 2020-UR0
P/2020 R5 (PANSTARRS),e,11.4543,272.9703,82.3303,4.979024,0.0887131,0.31449261,14.3490,11/06.0/2020,2000,g  9.5,6.0
# From MPEC 2020-UR0
C/2020 R6 (Rankin),e,82.8220,12.1751,272.0012,437.7527,0.0001076,0.99285163,0.0000,09/10.0614/2019,2000,g 11.0,4.0
# From MPEC 2020-UR0
C/2020 R7 (ATLAS),h,09/16.2592/2022,114.8929,268.2896,347.7131,1.000290,2.962414,2000,7.0,3.2
# From MPEC 2020-UR0
P/2020 S1 (PANSTARRS),e,13.7340,129.4591,254.8729,5.980204,0.0673954,0.50715674,355.1532,11/06.0/2020,2000,g 14.0,4.0
# From MPEC 2020-UR0
C/2020 S2 (PANSTARRS),e,22.3961,197.6868,202.2606,10.16961,0.0303912,0.82732512,358.6040,11/06.0/2020,2000,g 17.0,4.0
# From MPEC 2020-UR0
C/2020 S3 (Erasmus),e,19.8620,223.0047,349.8585,209.6385,0.0003247,0.99809832,0.0000,12/12.6695/2020,2000,g 13.5,3.2
# From MPEC 2020-UR0
C/2020 S4 (PANSTARRS),h,02/07.9771/2023,20.5770,117.6930,21.1184,1.002722,3.359399,2000,8.5,3.2
# From MPEC 2020-UR0
P/2020 S5 (PANSTARRS),e,12.3540,315.9982,53.0275,4.047956,0.1210181,0.33824550,10.8411,11/06.0/2020,2000,g 14.5,4.0
# From MPEC 2020-UR0
P/2020 S6 (Leonard),e,15.4601,242.5709,176.6536,3.598817,0.1443658,0.47904212,357.4575,11/06.0/2020,2000,g 16.0,4.0
# From MPEC 2020-UR0
P/2020 S7 (PANSTARRS),e,16.0922,328.0189,40.4036,5.023184,0.0875458,0.41053020,358.9436,11/06.0/2020,2000,g 14.5,4.0
# From MPEC 2020-UR0
C/2020 S8 (Lemmon),e,108.5175,24.0517,160.3286,269.0155,0.0002234,0.99121259,0.0000,04/10.9257/2021,2000,g 12.5,4.0
# From MPEC 2020-UR0
C/2020 T2 (Palomar),e,27.8728,83.0524,150.3694,322.2496,0.0001704,0.99362349,0.0000,07/11.1240/2021,2000,g 11.0,3.2
# From MPEC 2020-UR0
P/2020 T3 (PANSTARRS),e,7.2955,74.0195,357.0416,3.516496,0.1494648,0.59147318,348.7210,11/06.0/2020,2000,g 18.0,3.2
# From MPEC 2020-UR0
C/2020 T4 (PANSTARRS),e,83.8165,50.6222,79.6050,30782,0.0000002,0.99992879,0.0000,07/05.2590/2021,2000,g 13.0,3.2
# From MPEC 2020-UR0
C/2020 T5 (Lemmon),e,66.6040,237.8616,90.2927,925.1265,0.0000350,0.99795810,0.0000,10/09.6226/2020,2000,g 16.0,4.0
# From MPEC 2020-UR0
P/2020 U2 (PANSTARRS),e,6.4216,342.9046,84.6406,3.777408,0.1342497,0.51052251,353.3277,11/06.0/2020,2000,g 18.0,4.0
# From MPEC 2020-UR0
C/2020 U3 (Rankin),e,30.1768,282.6784,124.2613,64.58054,0.0018991,0.96475434,359.8253,11/06.0/2020,2000,g 15.0,4.0
# From MPEC 2020-UR0
C/2020 U4 (PANSTARRS),h,04/07.6633/2022,167.0374,120.0212,69.5154,1.002719,5.353829,2000,7.0,4.0
# From MPEC 2020-UR0
C/2020 U5 (PANSTARRS),e,97.2641,107.3427,75.3932,1412,0.0000186,0.99733758,0.0000,04/28.4000/2022,2000,g  8.0,4.0
# From  98, 1083
1P/Halley,e,162.2881,58.4240,111.3622,17.87157,0.0130455,0.96616536,165.7259,11/06.0/2020,2000,g  4.0,6.0
# From MPC118097
2P/Encke,e,11.7663,334.5457,186.5706,2.215717,0.2988358,0.84803877,39.7896,11/06.0/2020,2000,g 11.5,6.0
# From MPEC 2015-A10
4P/Faye,e,8.0083,193.0353,206.9055,3.828416,0.1315756,0.57734716,319.5639,11/06.0/2020,2000,g  8.0,6.0
# From MPEC 2015-S97
6P/d'Arrest,e,19.5122,138.9346,178.1000,3.497493,0.1506846,0.61262274,312.4165,11/06.0/2020,2000,g  9.0,4.0
# From MPEC 2015-E14
7P/Pons-Winnecke,e,22.3636,93.3773,172.5831,3.414521,0.1562102,0.63850336,328.4298,11/06.0/2020,2000,g  9.0,4.0
# From MPEC 2020-SI8
8P/Tuttle,e,54.9117,270.2049,207.4907,5.704531,0.0723393,0.82012794,338.6775,11/06.0/2020,2000,g  8.0,8.0
# From MPEC 2019-JE2
9P/Tempel,e,10.4709,68.7298,179.3211,3.147270,0.1765237,0.50940277,274.5864,11/06.0/2020,2000,g  9.0,4.0
# From MPC114607
10P/Tempel,e,12.0398,117.8095,195.5178,3.060781,0.1840584,0.53853884,334.5456,11/06.0/2020,2000,g  5.0,10.0
# From MPEC 2017-L52
11P/Tempel-Swift-LINEAR,e,14.4207,238.9167,167.9461,3.282823,0.1657040,0.57695267,356.6486,11/06.0/2020,2000,g  9.0,4.0
# From  27, 604
12P/Pons-Brooks,e,74.0924,255.7280,199.0298,17.10350,0.0139340,0.95431391,342.4153,11/06.0/2020,2000,g  5.0,6.0
# From  27, 604
13P/Olbers,e,44.6257,85.8679,64.5186,16.68597,0.0144603,0.92971164,340.7179,11/06.0/2020,2000,g  5.0,6.0
# From MPC100283
14P/Wolf,e,27.9051,202.0708,158.9885,4.259072,0.1121325,0.35672899,119.9506,11/06.0/2020,2000,g  5.5,12.0
# From MPC 92276
15P/Finlay,e,6.7976,13.7215,347.8339,3.504621,0.1502251,0.71700111,322.5103,11/06.0/2020,2000,g 12.0,4.0
# From MPC 92276
16P/Brooks,e,3.0116,138.8690,245.1562,3.657794,0.1408884,0.48654669,337.0193,11/06.0/2020,2000,g  7.5,10.0
# From MPEC 2020-SI8
17P/Holmes,e,19.0306,326.6201,24.4745,3.637883,0.1420466,0.42806416,344.9665,11/06.0/2020,2000,g 10.0,6.0
# From MPC 92984
19P/Borrelly,e,29.3535,74.3593,351.8327,3.606544,0.1439021,0.63813948,294.8604,11/06.0/2020,2000,g  4.5,10.0
# From MPC111773
21P/Giacobini-Zinner,e,32.0194,195.3593,172.8493,3.495926,0.1507859,0.71074139,118.7501,11/06.0/2020,2000,g  9.0,6.0
# From MPC 94283
22P/Kopff,e,4.7420,120.8371,162.9720,3.442508,0.1543091,0.54888580,283.3041,11/06.0/2020,2000,g  3.0,10.4
# From MPC 14747
23P/Brorsen-Metcalf,e,19.1328,312.4207,128.8135,16.95344,0.0141194,0.97110603,0.0000,08/09.7909/1989,2000,g 10.0,6.0
# From MPC110085
24P/Schaumasse,e,11.6210,79.1181,57.8828,4.054949,0.1207052,0.70892804,131.0019,11/06.0/2020,2000,g  6.5,14.0
# From MPC 94674
26P/Grigg-Skjellerup,e,22.4410,211.5400,2.1914,3.014003,0.1883600,0.64054553,144.3700,11/06.0/2020,2000,g 12.0,16.0
# From MPC 78188
27P/Crommelin,e,29.1521,250.5863,195.9801,9.188580,0.0353860,0.91803882,120.0666,11/06.0/2020,2000,g 12.0,8.0
# From MPEC 2020-SI8
28P/Neujmin,e,14.3109,346.3369,347.4199,6.978557,0.0534633,0.77385713,353.2688,11/06.0/2020,2000,g  8.5,6.0
# From MPEC 2020-U96
29P/Schwassmann-Wachmann,e,9.3668,312.3751,48.5520,6.035053,0.0664787,0.04429007,39.7978,11/06.0/2020,2000,g  4.0,4.0
# From MPC110085
30P/Reinmuth,e,8.6096,118.9352,11.1547,3.673599,0.1399801,0.53335549,163.2319,11/06.0/2020,2000,g  9.5,6.0
# From MPC108597
31P/Schwassmann-Wachmann,e,4.5473,114.1139,18.2306,4.240439,0.1128724,0.19232824,55.2655,11/06.0/2020,2000,g  5.0,8.0
# From MPC 92276
32P/Comas Sola,e,9.9144,57.2777,53.5817,4.496269,0.1033774,0.55863499,228.9913,11/06.0/2020,2000,g  6.5,8.0
# From MPEC 2013-O31
33P/Daniel,e,22.3165,66.3437,20.6011,4.083516,0.1194408,0.45213733,184.6710,11/06.0/2020,2000,g 10.0,12.0
# From  15, 452
35P/Herschel-Rigollet,e,64.875,356.481,29.037,28.5657,0.006456,0.9735995,0.000,12/25.2835/2091,2000,g  9.0,4.0
# From MPEC 2020-SI8
36P/Whipple,e,9.9520,181.8606,200.7954,4.131495,0.1173662,0.26862153,18.5741,11/06.0/2020,2000,g  8.5,6.0
# From MPEC 2018-HA5
37P/Forbes,e,8.9574,314.5606,330.0970,3.459602,0.1531669,0.53403467,140.4096,11/06.0/2020,2000,g 10.5,4.8
# From MPEC 2018-S50
38P/Stephan-Oterma,e,18.3560,77.9866,359.5315,11.24951,0.0261218,0.85893034,18.9670,11/06.0/2020,2000,g  3.5,12.0
# From MPEC 2020-UR0
39P/Oterma,e,1.5611,299.2527,95.2647,7.401940,0.0489425,0.22406863,314.9354,11/06.0/2020,2000,g  7.0,6.0
# From MPC100283
40P/Vaisala,e,11.4696,133.7805,47.4539,4.951173,0.0894627,0.62983616,195.5247,11/06.0/2020,2000,g  5.5,12.0
# From MPC105240
41P/Tuttle-Giacobini-Kresak,e,9.2209,140.9930,62.2600,3.086380,0.1817732,0.66016949,237.0522,11/06.0/2020,2000,g 10.0,16.0
# From MPC 94283
42P/Neujmin,e,3.9898,150.1861,147.1872,4.872982,0.0916246,0.58543781,186.5304,11/06.0/2020,2000,g 13.0,6.0
# From MPC102956
43P/Wolf-Harrington,e,9.3672,244.3229,224.0934,4.309598,0.1101663,0.43763105,168.9312,11/06.0/2020,2000,g  8.0,6.0
# From MPEC 2020-HN5
44P/Reinmuth,e,5.8984,286.4802,58.1389,3.688585,0.1391279,0.42720791,285.7689,11/06.0/2020,2000,g  8.3,6.0
# From MPC103849
